O3B FM10                
1 40348U 14083A   26062.81697293 -.00000028  00000+0  00000+0 0  9995
2 40348   0.0434 347.2947 0002687 353.8137  18.8747  5.00115218204623
O3B FM11                
1 40349U 14083B   26062.82969604 -.00000028  00000+0  00000+0 0  9995
2 40349   0.0566   0.5177 0003137 331.0616  28.3969  5.00115587204648
O3B FM12                
1 40350U 14083C   26062.45701119 -.00000028  00000+0  00000+0 0  9991
2 40350   0.0560 359.7796 0002643 337.6957  22.5061  5.00115945204637
O3B FM9                 
1 40351U 14083D   26063.08351174 -.00000028  00000+0  00000+0 0  9994
2 40351   0.0577   0.7662 0002736 340.8313  18.3859  5.00115903204818
ASTRA 2G                
1 40364U 14089A   26063.06919770  .00000000  00000+0  00000+0 0  9993
2 40364   0.0225   7.7976 0004378  20.5084 186.6205  1.00270584 40914
SES-9                   
1 41380U 16013A   26063.03580046 -.00000358  00000+0  00000+0 0  9995
2 41380   0.0431 306.8185 0001451  87.9423 248.1980  1.00271337 36387
SES-10                  
1 42432U 17017A   26063.15044814 -.00000285  00000+0  00000+0 0  9999
2 42432   0.0207  73.7163 0002706 275.6575 159.7706  1.00269411 32706
SES-15                  
1 42709U 17026A   26063.13139422  .00000047  00000+0  00000+0 0  9999
2 42709   0.0446 309.4036 0000725  34.2900  96.3137  1.00270724  6373
SES-11 (ECHOSTAR 105)   
1 42967U 17063A   26063.13624759 -.00000102  00000+0  00000+0 0  9991
2 42967   0.0360  70.9037 0002916 268.7412 126.3389  1.00272161 30671
SES-14                  
1 43175U 18012B   26063.08030776 -.00000291  00000+0  00000+0 0  9991
2 43175   0.0145  71.8974 0000977 269.6847 161.6531  1.00271475  5974
O3B FM15                
1 43231U 18024A   26062.95038387 -.00000028  00000+0  00000+0 0  9996
2 43231   0.0484   0.7666 0002703 337.6890  21.5262  5.00115661145760
O3B FM16                
1 43232U 18024B   26059.80451050 -.00000028  00000+0  00000+0 0  9993
2 43232   0.0446   2.3185 0002785 333.1821  24.4786  5.00115846145520
O3B FM14                
1 43233U 18024C   26063.04351249 -.00000028  00000+0  00000+0 0  9994
2 43233   0.0433   1.5385 0002847 342.0948  16.3508  5.00115627145695
O3B FM13                
1 43234U 18024D   26062.10991137 -.00000028  00000+0  00000+0 0  9997
2 43234   0.0485 331.6373 0004295 331.6147  56.6997  5.00115687145742
SES-12                  
1 43488U 18049A   26063.16641990  .00000000  00000+0  00000+0 0  9990
2 43488   0.0188 120.2670 0002089 184.2983  12.2805  1.00268956 28362
O3B FM20                
1 44112U 19020A   26061.87018883 -.00000029  00000+0  00000+0 0  9992
2 44112   0.0516 359.6601 0002817 330.2863  30.0302  5.00115471126257
O3B FM19                
1 44113U 19020B   26058.89895873 -.00000027  00000+0  00000+0 0  9991
2 44113   0.0602 347.5601 0004795 353.9797  18.4356  5.00116325125971
